[{"OBJECT_NAME":"YAOGAN-30 02B","OBJECT_ID":"2017-058B","EPOCH":"2026-03-09T22:20:48.449184","MEAN_MOTION":15.02255785,"ECCENTRICITY":0.00019399,"INCLINATION":34.9967,"RA_OF_ASC_NODE":274.9762,"ARG_OF_PERICENTER":191.875,"MEAN_ANOMALY":168.1912,"EPHEMERIS_TYPE":0,"CLASSIFICATION_TYPE":"U","NORAD_CAT_ID":42946,"ELEMENT_SET_NO":999,"REV_AT_EPOCH":46092,"BSTAR":0.0003113928,"MEAN_MOTION_DOT":4.165e-5,"MEAN_MOTION_DDOT":0},{"OBJECT_NAME":"STARLINK-5670","OBJECT_ID":"2023-013L","EPOCH":"2026-03-09T01:40:48.302400","MEAN_MOTION":15.02534119,"ECCENTRICITY":0.00010549,"INCLINATION":43.003,"RA_OF_ASC_NODE":303.9234,"ARG_OF_PERICENTER":272.6238,"MEAN_ANOMALY":87.4484,"EPHEMERIS_TYPE":0,"CLASSIFICATION_TYPE":"U","NORAD_CAT_ID":55341,"ELEMENT_SET_NO":999,"REV_AT_EPOCH":17161,"BSTAR":-6.1967083e-5,"MEAN_MOTION_DOT":-1.04e-5,"MEAN_MOTION_DDOT":0}]
